NORAD_CAT_ID,OBJECT_NAME,OBJECT_TYPE,EPOCH,MEAN_MOTION,ECCENTRICITY,INCLINATION,RA_OF_ASC_NODE,ARG_OF_PERICENTER,MEAN_ANOMALY,BSTAR,MEAN_MOTION_DOT,MEAN_MOTION_DDOT,TLE_LINE0,TLE_LINE1,TLE_LINE2,SEMIMAJOR_AXIS,PERIOD,APOGEE,PERIGEE,DECAYED
51773.0,STARLINK-3624,PAYLOAD,2023-11-07 05:44:05,15.08810422,0.0001272,53.2158,210.4103,101.0009,259.1127,-0.00096051,-0.00015529,0.0,0 STARLINK-3624,1 51773U 22017F   23311.23895185 -.00015529  00000-0 -96051-3 0  9994,2 51773  53.2158 210.4103 0001272 101.0009 259.1127 15.08810422 93766,6917.971,95.439,540.716,538.956,0.0
51773.0,STARLINK-3624,PAYLOAD,2023-11-08 02:24:07,15.08815543,0.0001637,53.2162,206.5408,87.3221,272.7958,5.3616e-05,5.65e-06,0.0,0 STARLINK-3624,1 51773U 22017F   23312.10008562  .00000565  00000-0  53616-4 0  9999,2 51773  53.2162 206.5408 0001637  87.3221 272.7958 15.08815543 95351,6917.955,95.439,540.953,538.688,0.0
51773.0,STARLINK-3624,PAYLOAD,2023-11-08 23:04:08,15.08836533,0.0001312,53.2165,202.6785,111.2664,248.8468,0.00062935,9.741e-05,0.0,0 STARLINK-3624,1 51773U 22017F   23312.96121504  .00009741  00000-0  62935-3 0  9993,2 51773  53.2165 202.6785 0001312 111.2664 248.8468 15.08836533 94022,6917.891,95.438,540.664,538.848,0.0
51773.0,STARLINK-3624,PAYLOAD,2023-11-09 22:54:55,15.08846218,0.0001311,53.2169,198.2188,99.3419,260.7722,0.00037131,5.627e-05,0.0,0 STARLINK-3624,1 51773U 22017F   23313.95481433  .00005627  00000-0  37131-3 0  9992,2 51773  53.2169 198.2188 0001311  99.3419 260.7722 15.08846218 94179,6917.861,95.437,540.633,538.819,0.0
51773.0,STARLINK-3624,PAYLOAD,2023-11-10 02:05:42,15.08847916,0.0001355,53.2168,197.6238,98.6801,261.4345,0.00040363,6.143e-05,0.0,0 STARLINK-3624,1 51773U 22017F   23314.08729365  .00006143  00000-0  40363-3 0  9991,2 51773  53.2168 197.6238 0001355  98.6801 261.4345 15.08847916 95651,6917.856,95.437,540.659,538.784,0.0
51773.0,STARLINK-3624,PAYLOAD,2023-11-10 10:02:37,15.08847721,0.0001327,53.2167,196.136,95.8236,264.2908,0.0003229,4.856e-05,0.0,0 STARLINK-3624,1 51773U 22017F   23314.41849279  .00004856  00000-0  32290-3 0  9994,2 51773  53.2167 196.1360 0001327  95.8236 264.2908 15.08847721 94244,6917.857,95.437,540.64,538.804,0.0
51773.0,STARLINK-3624,PAYLOAD,2023-11-10 19:34:56,15.08848376,0.0001525,53.2175,194.3516,98.9192,261.1973,0.00035818,5.418e-05,0.0,0 STARLINK-3624,1 51773U 22017F   23314.81593238  .00005418  00000-0  35818-3 0  9993,2 51773  53.2175 194.3516 0001525  98.9192 261.1973 15.08848376 95764,6917.855,95.437,540.775,538.665,0.0
51773.0,STARLINK-3624,PAYLOAD,2023-11-10 22:45:42,15.08851822,0.0001555,53.2173,193.7568,101.2619,258.8547,0.00022913,3.362e-05,0.0,0 STARLINK-3624,1 51773U 22017F   23314.94840760  .00003362  00000-0  22913-3 0  9990,2 51773  53.2173 193.7568 0001555 101.2619 258.8547 15.08851822 94328,6917.844,95.437,540.785,538.634,0.0
51773.0,STARLINK-3624,PAYLOAD,2023-11-11 19:25:43,15.088436,0.0001504,53.2181,189.891,98.4228,261.6935,0.0001147,1.538e-05,0.0,0 STARLINK-3624,1 51773U 22017F   23315.80953261  .00001538  00000-0  11470-3 0  9996,2 51773  53.2181 189.8910 0001504  98.4228 261.6935 15.08843600 95915,6917.869,95.437,540.775,538.694,0.0
51773.0,STARLINK-3624,PAYLOAD,2023-11-11 22:36:29,15.08841129,0.0001436,53.2168,189.297,82.7987,277.3169,5.9255e-05,6.55e-06,0.0,0 STARLINK-3624,1 51773U 22017F   23315.94201337  .00000655  00000-0  59255-4 0  9994,2 51773  53.2168 189.2970 0001436  82.7987 277.3169 15.08841129 94479,6917.877,95.437,540.735,538.749,0.0
51773.0,STARLINK-3624,PAYLOAD,2023-11-12 08:08:48,15.08842003,0.0001438,53.2167,187.513,81.1412,278.9743,8.5866e-05,1.079e-05,0.0,0 STARLINK-3624,1 51773U 22017F   23316.33945325  .00001079  00000-0  85866-4 0  9998,2 51773  53.2167 187.5130 0001438  81.1412 278.9743 15.08842003 94539,6917.874,95.437,540.734,538.744,0.0
51773.0,STARLINK-3624,PAYLOAD,2023-11-12 22:27:16,15.08852831,0.0001384,53.216,184.8386,81.1105,279.0044,0.00028704,4.285e-05,0.0,0 STARLINK-3624,1 51773U 22017F   23316.93560762  .00004285  00000-0  28704-3 0  9991,2 51773  53.2160 184.8386 0001384  81.1105 279.0044 15.08852831 94620,6917.841,95.437,540.664,538.749,0.0
51773.0,STARLINK-3624,PAYLOAD,2023-11-13 01:38:02,15.08856168,0.0001414,53.2161,184.2435,85.805,274.3104,0.00030388,4.554e-05,0.0,0 STARLINK-3624,1 51773U 22017F   23317.06808550  .00004554  00000-0  30388-3 0  9996,2 51773  53.2161 184.2435 0001414  85.8050 274.3104 15.08856168 96101,6917.831,95.437,540.674,538.718,0.0
51773.0,STARLINK-3624,PAYLOAD,2023-11-13 07:59:35,15.08847317,0.000143,53.2156,183.0512,77.9428,282.1724,0.00018137,2.6e-05,0.0,0 STARLINK-3624,1 51773U 22017F   23317.33304656  .00002600  00000-0  18137-3 0  9992,2 51773  53.2156 183.0512 0001430  77.9428 282.1724 15.08847317 96142,6917.858,95.437,540.712,538.734,0.0
51773.0,STARLINK-3624,PAYLOAD,2023-11-13 22:18:03,15.08839999,0.0001494,53.2155,180.3758,72.8728,287.2427,7.1671e-06,-1.74e-06,0.0,0 STARLINK-3624,1 51773U 22017F   23317.92921039 -.00000174  00000-0  71671-5 0  9996,2 51773  53.2155 180.3758 0001494  72.8728 287.2427 15.08839999 94770,6917.88,95.438,540.779,538.712,0.0
51773.0,STARLINK-3624,PAYLOAD,2023-11-14 14:11:55,15.08839314,0.0001618,53.2155,177.4049,86.1663,273.9514,-7.5466e-05,-1.489e-05,0.0,0 STARLINK-3624,1 51773U 22017F   23318.59161232 -.00001489  00000-0 -75466-4 0  9997,2 51773  53.2155 177.4049 0001618  86.1663 273.9514 15.08839314 94875,6917.882,95.438,540.867,538.628,0.0
51773.0,STARLINK-3624,PAYLOAD,2023-11-14 23:44:14,15.08837601,0.0001576,53.2155,175.6206,86.0613,274.0559,-7.9775e-05,-1.557e-05,0.0,0 STARLINK-3624,1 51773U 22017F   23318.98905429 -.00001557  00000-0 -79775-4 0  9997,2 51773  53.2155 175.6206 0001576  86.0613 274.0559 15.08837601 96394,6917.888,95.438,540.843,538.662,0.0
51773.0,STARLINK-3624,PAYLOAD,2023-11-15 20:24:14,15.08842687,0.000144,53.2157,171.7557,88.7042,271.4115,0.00016965,2.413e-05,0.0,0 STARLINK-3624,1 51773U 22017F   23319.85017330  .00002413  00000-0  16965-3 0  9990,2 51773  53.2157 171.7557 0001440  88.7042 271.4115 15.08842687 95069,6917.872,95.437,540.733,538.741,0.0
51773.0,STARLINK-3624,PAYLOAD,2023-11-16 13:53:27,15.08878993,0.0002111,53.2158,168.4843,98.1686,261.9545,0.00060004,9.285e-05,0.0,0 STARLINK-3624,1 51773U 22017F   23320.57878657  .00009285  00000-0  60004-3 0  9995,2 51773  53.2158 168.4843 0002111  98.1686 261.9545 15.08878993 95178,6917.761,95.435,541.087,538.166,0.0
51773.0,STARLINK-3624,PAYLOAD,2023-11-16 20:15:00,15.08848059,0.000174,53.2156,167.295,88.5097,271.6094,8.1433e-05,1.008e-05,0.0,0 STARLINK-3624,1 51773U 22017F   23320.84375449  .00001008  00000-0  81433-4 0  9991,2 51773  53.2156 167.2950 0001740  88.5097 271.6094 15.08848059 95210,6917.856,95.437,540.924,538.517,0.0
51773.0,STARLINK-3624,PAYLOAD,2023-11-16 23:25:46,15.08848436,9.51e-05,53.2174,166.6999,87.5601,272.55,2.3526e-05,8.7e-07,0.0,0 STARLINK-3624,1 51773U 22017F   23320.97623269  .00000087  00000-0  23526-4 0  9996,2 51773  53.2174 166.6999 0000951  87.5601 272.5500 15.08848436 96693,6917.855,95.437,540.377,539.062,0.0
51773.0,STARLINK-3624,PAYLOAD,2023-11-17 07:22:43,15.0883393,0.000143,53.215,165.2117,95.7842,264.3313,-0.00013891,-2.498e-05,0.0,0 STARLINK-3624,1 51773U 22017F   23321.30744597 -.00002498  00000-0 -13891-3 0  9995,2 51773  53.2150 165.2117 0001430  95.7842 264.3313 15.08833930 96745,6917.899,95.438,540.753,538.775,0.0
51773.0,STARLINK-3624,PAYLOAD,2023-11-17 13:44:15,15.08843651,0.0001506,53.2146,164.0228,90.3735,269.743,-0.00044468,-7.359e-05,0.0,0 STARLINK-3624,1 51773U 22017F   23321.57240048 -.00007359  00000-0 -44468-3 0  9991,2 51773  53.2146 164.0228 0001506  90.3735 269.7430 15.08843651 95329,6917.869,95.437,540.776,538.692,0.0
51773.0,STARLINK-3624,PAYLOAD,2023-11-17 20:05:47,15.08845763,0.000168,53.2137,162.8341,96.0859,264.0325,-0.00063823,-0.00010433,0.0,0 STARLINK-3624,1 51773U 22017F   23321.83735723 -.00010433  00000-0 -63823-3 0  9992,2 51773  53.2137 162.8341 0001680  96.0859 264.0325 15.08845763 96827,6917.863,95.437,540.89,538.566,0.0
51773.0,STARLINK-3624,PAYLOAD,2023-11-18 19:56:35,15.08844734,0.0001637,53.2158,158.3728,94.3043,265.8136,-0.00024828,-4.238e-05,0.0,0 STARLINK-3624,1 51773U 22017F   23322.83096636 -.00004238  00000-0 -24828-3 0  9994,2 51773  53.2158 158.3728 0001637  94.3043 265.8136 15.08844734 95518,6917.866,95.437,540.863,538.598,0.0
51773.0,STARLINK-3624,PAYLOAD,2023-11-18 23:07:22,15.08823657,0.0001478,53.2145,157.7789,89.9408,270.1754,6.7743e-05,7.9e-06,0.0,0 STARLINK-3624,1 51773U 22017F   23322.96345528  .00000790  00000-0  67743-4 0  9996,2 51773  53.2145 157.7789 0001478  89.9408 270.1754 15.08823657 96991,6917.93,95.439,540.818,538.773,0.0
51773.0,STARLINK-3624,PAYLOAD,2023-11-19 13:25:51,15.08825431,0.0001529,53.2161,155.1025,91.1172,268.9995,0.00015302,2.147e-05,0.0,0 STARLINK-3624,1 51773U 22017F   23323.55962055  .00002147  00000-0  15302-3 0  9993,2 51773  53.2161 155.1025 0001529  91.1172 268.9995 15.08825431 95627,6917.925,95.438,540.848,538.732,0.0
51773.0,STARLINK-3624,PAYLOAD,2023-11-19 19:47:23,15.08828574,0.0001516,53.2161,153.9129,91.4173,268.6992,0.000178,2.545e-05,0.0,0 STARLINK-3624,1 51773U 22017F   23323.82458147  .00002545  00000-0  17800-3 0  9992,2 51773  53.2161 153.9129 0001516  91.4173 268.6992 15.08828574 95667,6917.915,95.438,540.829,538.732,0.0
51773.0,STARLINK-3624,PAYLOAD,2023-11-20 05:19:42,15.08831807,0.0001552,53.2163,152.1287,91.582,268.535,0.00018069,2.588e-05,0.0,0 STARLINK-3624,1 51773U 22017F   23324.22202292  .00002588  00000-0  18069-3 0  9990,2 51773  53.2163 152.1287 0001552  91.5820 268.5350 15.08831807 97184,6917.905,95.438,540.844,538.697,0.0
51773.0,STARLINK-3624,PAYLOAD,2023-11-20 13:16:39,15.088204,0.0001356,53.2169,150.6408,85.3089,274.8058,4.8748e-05,4.88e-06,0.0,0 STARLINK-3624,1 51773U 22017F   23324.55323666  .00000488  00000-0  48748-4 0  9990,2 51773  53.2169 150.6408 0001356  85.3089 274.8058 15.08820400 95773,6917.94,95.439,540.743,538.867,0.0
